{"type": "FeatureCollection", "features": [ {"type": "Feature", "properties": {"norad_id": 39574, "name": "GPM-CORE", "group": "resource", "lat": -3.8510796101920652, "lon": 31.717786767815834, "alt_km": 432.1959803847303, "timestamp": "2025-12-13T13:34:34.731775+00:00", "meta": {"OBJECT_NAME": "GPM-CORE", "OBJECT_ID": "2014-009C", "EPOCH": "2025-12-13T00:20:55.419648", "MEAN_MOTION": 15.44471184, "ECCENTRICITY": 0.00098252, "INCLINATION": 64.9736, "RA_OF_ASC_NODE": 211.7601, "ARG_OF_PERICENTER": 245.2747, "MEAN_ANOMALY": 114.7372, "EPHEMERIS_TYPE": 0, "CLASSIFICATION_TYPE": "U", "NORAD_CAT_ID": 39574, "ELEMENT_SET_NO": 999, "REV_AT_EPOCH": 66905, "BSTAR": 0.00024919516, "MEAN_MOTION_DOT": 0.00011388, "MEAN_MOTION_DDOT": 0}, "tle": {"line1": "1 39574U 14009C   25347.01453032  .00011388  00000+0  24920-3 0  9991", "line2": "2 39574  64.9736 211.7601 0009825 245.2747 114.7372 15.44471184669058"}}, "geometry": {"type": "Point", "coordinates": [31.717786767815834, -3.8510796101920652]}}, {"type": "Feature", "properties": {"norad_id": 39634, "name": "SENTINEL-1A", "group": "resource", "lat": 39.266232995258, "lon": 179.54854744760482, "alt_km": 692.2965040713079, "timestamp": "2025-12-13T13:34:34.731784+00:00", "meta": {"OBJECT_NAME": "SENTINEL-1A", "OBJECT_ID": "2014-016A", "EPOCH": "2025-12-12T23:46:13.965024", "MEAN_MOTION": 14.59201274, "ECCENTRICITY": 0.00012456, "INCLINATION": 98.1807, "RA_OF_ASC_NODE": 352.2281, "ARG_OF_PERICENTER": 83.4741, "MEAN_ANOMALY": 276.66, "EPHEMERIS_TYPE": 0, "CLASSIFICATION_TYPE": "U", "NORAD_CAT_ID": 39634, "ELEMENT_SET_NO": 999, "REV_AT_EPOCH": 62286, "BSTAR": 0.00010505557, "MEAN_MOTION_DOT": 4.5e-06, "MEAN_MOTION_DDOT": 0}, "tle": {"line1": "1 39634U 14016A   25346.99043941  .00000450  00000+0  10506-3 0  9999", "line2": "2 39634  98.1807 352.2281 0001245  83.4741 276.6600 14.59201274622868"}}, "geometry": {"type": "Point", "coordinates": [179.54854744760482, 39.266232995258]}}, {"type": "Feature", "properties": {"norad_id": 39731, "name": "KAZEOSAT 1", "group": "resource", "lat": 62.53047893571613, "lon": 43.05890183071261, "alt_km": 744.882839546889, "timestamp": "2025-12-13T13:34:34.731794+00:00", "meta": {"OBJECT_NAME": "KAZEOSAT 1", "OBJECT_ID": "2014-024A", "EPOCH": "2025-12-12T23:57:35.483040", "MEAN_MOTION": 14.42063169, "ECCENTRICITY": 0.00011187, "INCLINATION": 98.3428, "RA_OF_ASC_NODE": 58.8993, "ARG_OF_PERICENTER": 94.71, "MEAN_ANOMALY": 265.4217, "EPHEMERIS_TYPE": 0, "CLASSIFICATION_TYPE": "U", "NORAD_CAT_ID": 39731, "ELEMENT_SET_NO": 999, "REV_AT_EPOCH": 61172, "BSTAR": 0.00016671068, "MEAN_MOTION_DOT": 5.05e-06, "MEAN_MOTION_DDOT": 0}, "tle": {"line1": "1 39731U 14024A   25346.99832735  .00000505  00000+0  16671-3 0  9993", "line2": "2 39731  98.3428  58.8993 0001118  94.7100 265.4217 14.42063169611723"}}, "geometry": {"type": "Point", "coordinates": [43.05890183071261, 62.53047893571613]}}, {"type": "Feature", "properties": {"norad_id": 39766, "name": "ALOS-2", "group": "resource", "lat": 58.0137417201685, "lon": 69.5168137519396, "alt_km": 624.5921105469497, "timestamp": "2025-12-13T13:34:34.731803+00:00", "meta": {"OBJECT_NAME": "ALOS-2", "OBJECT_ID": "2014-029A", "EPOCH": "2025-12-12T12:57:47.930112", "MEAN_MOTION": 14.79474197, "ECCENTRICITY": 0.00014, "INCLINATION": 97.9217, "RA_OF_ASC_NODE": 81.3886, "ARG_OF_PERICENTER": 99.6977, "MEAN_ANOMALY": 260.4393, "EPHEMERIS_TYPE": 0, "CLASSIFICATION_TYPE": "U", "NORAD_CAT_ID": 39766, "ELEMENT_SET_NO": 999, "REV_AT_EPOCH": 62398, "BSTAR": 0.00062702076, "MEAN_MOTION_DOT": 4.634e-05, "MEAN_MOTION_DDOT": 0}, "tle": {"line1": "1 39766U 14029A   25346.54013808  .00004634  00000+0  62702-3 0  9992", "line2": "2 39766  97.9217  81.3886 0001400  99.6977 260.4393 14.79474197623982"}}, "geometry": {"type": "Point", "coordinates": [69.5168137519396, 58.0137417201685]}}, {"type": "Feature", "properties": {"norad_id": 40010, "name": "KAZEOSAT 2", "group": "resource", "lat": -13.951317296789771, "lon": -166.27403986121507, "alt_km": 621.9293999392585, "timestamp": "2025-12-13T13:34:34.731812+00:00", "meta": {"OBJECT_NAME": "KAZEOSAT 2", "OBJECT_ID": "2014-033A", "EPOCH": "2025-12-13T00:42:13.755168", "MEAN_MOTION": 14.85169937, "ECCENTRICITY": 0.00076442, "INCLINATION": 97.5508, "RA_OF_ASC_NODE": 191.3291, "ARG_OF_PERICENTER": 205.622, "MEAN_ANOMALY": 154.4618, "EPHEMERIS_TYPE": 0, "CLASSIFICATION_TYPE": "U", "NORAD_CAT_ID": 40010, "ELEMENT_SET_NO": 999, "REV_AT_EPOCH": 62132, "BSTAR": 0.0001608303, "MEAN_MOTION_DOT": 1.328e-05, "MEAN_MOTION_DDOT": 0}, "tle": {"line1": "1 40010U 14033A   25347.02932587  .00001328  00000+0  16083-3 0  9997", "line2": "2 40010  97.5508 191.3291 0007644 205.6220 154.4618 14.85169937621321"}}, "geometry": {"type": "Point", "coordinates": [-166.27403986121507, -13.951317296789771]}}, {"type": "Feature", "properties": {"norad_id": 40011, "name": "HODOYOSHI-4", "group": "resource", "lat": 77.7773739779567, "lon": 138.70476684214557, "alt_km": 605.955523937776, "timestamp": "2025-12-13T13:34:34.731821+00:00", "meta": {"OBJECT_NAME": "HODOYOSHI-4", "OBJECT_ID": "2014-033B", "EPOCH": "2025-12-13T00:17:57.338880", "MEAN_MOTION": 14.87483366, "ECCENTRICITY": 0.00232394, "INCLINATION": 97.5416, "RA_OF_ASC_NODE": 175.8828, "ARG_OF_PERICENTER": 199.6037, "MEAN_ANOMALY": 160.4289, "EPHEMERIS_TYPE": 0, "CLASSIFICATION_TYPE": "U", "NORAD_CAT_ID": 40011, "ELEMENT_SET_NO": 999, "REV_AT_EPOCH": 62112, "BSTAR": 0.00030274335, "MEAN_MOTION_DOT": 2.705e-05, "MEAN_MOTION_DDOT": 0}, "tle": {"line1": "1 40011U 14033B   25347.01246920  .00002705  00000+0  30274-3 0  9994", "line2": "2 40011  97.5416 175.8828 0023239 199.6037 160.4289 14.87483366621125"}}, "geometry": {"type": "Point", "coordinates": [138.70476684214557, 77.7773739779567]}}, {"type": "Feature", "properties": {"norad_id": 40013, "name": "DEIMOS-2", "group": "resource", "lat": -72.50813603747459, "lon": 18.249939849968722, "alt_km": 596.453419893197, "timestamp": "2025-12-13T13:34:34.731830+00:00", "meta": {"OBJECT_NAME": "DEIMOS-2", "OBJECT_ID": "2014-033D", "EPOCH": "2025-12-12T23:34:23.040768", "MEAN_MOTION": 14.92974987, "ECCENTRICITY": 7.912e-05, "INCLINATION": 97.606, "RA_OF_ASC_NODE": 222.7744, "ARG_OF_PERICENTER": 104.5248, "MEAN_ANOMALY": 255.6059, "EPHEMERIS_TYPE": 0, "CLASSIFICATION_TYPE": "U", "NORAD_CAT_ID": 40013, "ELEMENT_SET_NO": 999, "REV_AT_EPOCH": 60993, "BSTAR": 0.00033932058, "MEAN_MOTION_DOT": 3.471e-05, "MEAN_MOTION_DDOT": 0}, "tle": {"line1": "1 40013U 14033D   25346.98221112  .00003471  00000+0  33932-3 0  9992", "line2": "2 40013  97.6060 222.7744 0000791 104.5248 255.6059 14.92974987609936"}}, "geometry": {"type": "Point", "coordinates": [18.249939849968722, -72.50813603747459]}}, {"type": "Feature", "properties": {"norad_id": 40015, "name": "HODOYOSHI-3", "group": "resource", "lat": -1.7064022685768052, "lon": 153.59301259046782, "alt_km": 626.159682857573, "timestamp": "2025-12-13T13:34:34.731839+00:00", "meta": {"OBJECT_NAME": "HODOYOSHI-3", "OBJECT_ID": "2014-033F", "EPOCH": "2025-12-12T23:01:39.934272", "MEAN_MOTION": 14.84808116, "ECCENTRICITY": 0.0031914, "INCLINATION": 97.6198, "RA_OF_ASC_NODE": 152.7849, "ARG_OF_PERICENTER": 247.2139, "MEAN_ANOMALY": 112.5704, "EPHEMERIS_TYPE": 0, "CLASSIFICATION_TYPE": "U", "NORAD_CAT_ID": 40015, "ELEMENT_SET_NO": 999, "REV_AT_EPOCH": 61998, "BSTAR": 0.00031566809, "MEAN_MOTION_DOT": 2.651e-05, "MEAN_MOTION_DDOT": 0}, "tle": {"line1": "1 40015U 14033F   25346.95948998  .00002651  00000+0  31567-3 0  9990", "line2": "2 40015  97.6198 152.7849 0031914 247.2139 112.5704 14.84808116619988"}}, "geometry": {"type": "Point", "coordinates": [153.59301259046782, -1.7064022685768052]}}, {"type": "Feature", "properties": {"norad_id": 40053, "name": "SPOT 7", "group": "resource", "lat": 9.131267097618005, "lon": 48.31154886874777, "alt_km": 692.2622164934446, "timestamp": "2025-12-13T13:34:34.731848+00:00", "meta": {"OBJECT_NAME": "SPOT 7", "OBJECT_ID": "2014-034A", "EPOCH": "2025-12-13T00:22:56.344224", "MEAN_MOTION": 14.60735052, "ECCENTRICITY": 0.00015888, "INCLINATION": 98.0903, "RA_OF_ASC_NODE": 49.0846, "ARG_OF_PERICENTER": 87.7231, "MEAN_ANOMALY": 272.4152, "EPHEMERIS_TYPE": 0, "CLASSIFICATION_TYPE": "U", "NORAD_CAT_ID": 40053, "ELEMENT_SET_NO": 999, "REV_AT_EPOCH": 60995, "BSTAR": 0.00023415326, "MEAN_MOTION_DOT": 1.096e-05, "MEAN_MOTION_DDOT": 0}, "tle": {"line1": "1 40053U 14034A   25347.01592991  .00001096  00000+0  23415-3 0  9994", "line2": "2 40053  98.0903  49.0846 0001588  87.7231 272.4152 14.60735052609959"}}, "geometry": {"type": "Point", "coordinates": [48.31154886874777, 9.131267097618005]}}, {"type": "Feature", "properties": {"norad_id": 40072, "name": "SKYSAT-B", "group": "resource", "lat": 22.90535550706768, "lon": -72.2474377908223, "alt_km": 608.3125910814251, "timestamp": "2025-12-13T13:34:34.731858+00:00", "meta": {"OBJECT_NAME": "SKYSAT-B", "OBJECT_ID": "2014-037D", "EPOCH": "2025-12-12T19:42:42.141312", "MEAN_MOTION": 14.87328681, "ECCENTRICITY": 0.00061586, "INCLINATION": 98.3606, "RA_OF_ASC_NODE": 290.5316, "ARG_OF_PERICENTER": 149.7913, "MEAN_ANOMALY": 210.3657, "EPHEMERIS_TYPE": 0, "CLASSIFICATION_TYPE": "U", "NORAD_CAT_ID": 40072, "ELEMENT_SET_NO": 999, "REV_AT_EPOCH": 61825, "BSTAR": 0.00031262497, "MEAN_MOTION_DOT": 2.763e-05, "MEAN_MOTION_DDOT": 0}, "tle": {"line1": "1 40072U 14037D   25346.82132108  .00002763  00000+0  31262-3 0  9997", "line2": "2 40072  98.3606 290.5316 0006158 149.7913 210.3657 14.87328681618251"}}, "geometry": {"type": "Point", "coordinates": [-72.2474377908223, 22.90535550706768]}}]}